{"type": "FeatureCollection", "features": [ {"type": "Feature", "properties": {"norad_id": 66912, "name": "1998-067XY", "group": "last-30-days", "lat": -16.793044110553822, "lon": 153.57747357879384, "alt_km": 420.69345351637367, "timestamp": "2025-12-07T16:44:02.691638+00:00", "meta": {"OBJECT_NAME": "1998-067XY", "OBJECT_ID": "1998-067XY", "EPOCH": "2025-12-06T19:10:11.930016", "MEAN_MOTION": 15.50363521, "ECCENTRICITY": 0.00052356, "INCLINATION": 51.6299, "RA_OF_ASC_NODE": 171.8684, "ARG_OF_PERICENTER": 194.0341, "MEAN_ANOMALY": 166.0503, "EPHEMERIS_TYPE": 0, "CLASSIFICATION_TYPE": "U", "NORAD_CAT_ID": 66912, "ELEMENT_SET_NO": 999, "REV_AT_EPOCH": 68, "BSTAR": 0.0011553511, "MEAN_MOTION_DOT": 0.00066928, "MEAN_MOTION_DDOT": 0}, "tle": {"line1": "1 66912U 98067XY  25340.79874919  .00066928  00000+0  11554-2 0  9990", "line2": "2 66912  51.6299 171.8684 0005235 194.0341 166.0503 15.50363521   686"}}, "geometry": {"type": "Point", "coordinates": [153.57747357879384, -16.793044110553822]}}, {"type": "Feature", "properties": {"norad_id": 66913, "name": "2025-284A", "group": "last-30-days", "lat": -45.0364569992976, "lon": -34.08953485761745, "alt_km": 504.1386422372252, "timestamp": "2025-12-07T16:44:02.691649+00:00", "meta": {"OBJECT_NAME": "2025-284A", "OBJECT_ID": "2025-284A", "EPOCH": "2025-12-05T19:30:25.528608", "MEAN_MOTION": 15.20033669, "ECCENTRICITY": 0.00128266, "INCLINATION": 80.4023, "RA_OF_ASC_NODE": 138.5488, "ARG_OF_PERICENTER": 252.3263, "MEAN_ANOMALY": 107.6565, "EPHEMERIS_TYPE": 0, "CLASSIFICATION_TYPE": "U", "NORAD_CAT_ID": 66913, "ELEMENT_SET_NO": 999, "REV_AT_EPOCH": 7, "BSTAR": 0.00014555981, "MEAN_MOTION_DOT": 3.163e-05, "MEAN_MOTION_DDOT": 0}, "tle": {"line1": "1 66913U 25284A   25339.81279547  .00003163  00000+0  14556-3 0  9997", "line2": "2 66913  80.4023 138.5488 0012826 252.3263 107.6565 15.20033669    75"}}, "geometry": {"type": "Point", "coordinates": [-34.08953485761745, -45.0364569992976]}}, {"type": "Feature", "properties": {"norad_id": 66915, "name": "HULIANWANG DIGUI 14A", "group": "last-30-days", "lat": -31.31419677681709, "lon": -11.456466635352578, "alt_km": 869.5539346274072, "timestamp": "2025-12-07T16:44:02.691659+00:00", "meta": {"OBJECT_NAME": "HULIANWANG DIGUI 14A", "OBJECT_ID": "2025-285A", "EPOCH": "2025-12-06T08:58:45.410016", "MEAN_MOTION": 14.06225102, "ECCENTRICITY": 0.00087698, "INCLINATION": 49.9887, "RA_OF_ASC_NODE": 143.2276, "ARG_OF_PERICENTER": 217.1051, "MEAN_ANOMALY": 142.9249, "EPHEMERIS_TYPE": 0, "CLASSIFICATION_TYPE": "U", "NORAD_CAT_ID": 66915, "ELEMENT_SET_NO": 999, "REV_AT_EPOCH": 1, "BSTAR": 1.8511052e-05, "MEAN_MOTION_DOT": -1.22e-06, "MEAN_MOTION_DDOT": 0}, "tle": {"line1": "1 66915U 25285A   25340.37413669 -.00000122  00000+0  18511-4 0  9997", "line2": "2 66915  49.9887 143.2276 0008769 217.1051 142.9249 14.06225102    11"}}, "geometry": {"type": "Point", "coordinates": [-11.456466635352578, -31.31419677681709]}}, {"type": "Feature", "properties": {"norad_id": 66916, "name": "HULIANWANG DIGUI 14B", "group": "last-30-days", "lat": -30.368831917586007, "lon": -12.671323648479708, "alt_km": 872.6841815635207, "timestamp": "2025-12-07T16:44:02.691669+00:00", "meta": {"OBJECT_NAME": "HULIANWANG DIGUI 14B", "OBJECT_ID": "2025-285B", "EPOCH": "2025-12-06T12:23:28.538592", "MEAN_MOTION": 14.0595389, "ECCENTRICITY": 0.0008093, "INCLINATION": 50.0119, "RA_OF_ASC_NODE": 142.6984, "ARG_OF_PERICENTER": 262.9615, "MEAN_ANOMALY": 97.037, "EPHEMERIS_TYPE": 0, "CLASSIFICATION_TYPE": "U", "NORAD_CAT_ID": 66916, "ELEMENT_SET_NO": 999, "REV_AT_EPOCH": 3, "BSTAR": 1.7671e-05, "MEAN_MOTION_DOT": -1.23e-06, "MEAN_MOTION_DDOT": 0}, "tle": {"line1": "1 66916U 25285B   25340.51630253 -.00000123  00000+0  17671-4 0  9991", "line2": "2 66916  50.0119 142.6984 0008093 262.9615  97.0370 14.05953890    34"}}, "geometry": {"type": "Point", "coordinates": [-12.671323648479708, -30.368831917586007]}}, {"type": "Feature", "properties": {"norad_id": 66917, "name": "HULIANWANG DIGUI 14C", "group": "last-30-days", "lat": -30.690563785718542, "lon": -12.256249354925759, "alt_km": 872.8213718978341, "timestamp": "2025-12-07T16:44:02.691681+00:00", "meta": {"OBJECT_NAME": "HULIANWANG DIGUI 14C", "OBJECT_ID": "2025-285C", "EPOCH": "2025-12-07T12:16:17.926176", "MEAN_MOTION": 14.06033663, "ECCENTRICITY": 0.0007479, "INCLINATION": 50.0017, "RA_OF_ASC_NODE": 138.6154, "ARG_OF_PERICENTER": 267.9821, "MEAN_ANOMALY": 92.0228, "EPHEMERIS_TYPE": 0, "CLASSIFICATION_TYPE": "U", "NORAD_CAT_ID": 66917, "ELEMENT_SET_NO": 999, "REV_AT_EPOCH": 17, "BSTAR": -1.0709e-05, "MEAN_MOTION_DOT": -1.7e-06, "MEAN_MOTION_DDOT": 0}, "tle": {"line1": "1 66917U 25285C   25341.51131859 -.00000170  00000+0 -10709-4 0  9999", "line2": "2 66917  50.0017 138.6154 0007479 267.9821  92.0228 14.06033663   177"}}, "geometry": {"type": "Point", "coordinates": [-12.256249354925759, -30.690563785718542]}}, {"type": "Feature", "properties": {"norad_id": 66918, "name": "HULIANWANG DIGUI 14D", "group": "last-30-days", "lat": -31.067176780181047, "lon": -11.762033222657283, "alt_km": 872.6573918716122, "timestamp": "2025-12-07T16:44:02.691693+00:00", "meta": {"OBJECT_NAME": "HULIANWANG DIGUI 14D", "OBJECT_ID": "2025-285D", "EPOCH": "2025-12-07T12:16:10.181280", "MEAN_MOTION": 14.06161971, "ECCENTRICITY": 0.0006366, "INCLINATION": 50.0041, "RA_OF_ASC_NODE": 138.6166, "ARG_OF_PERICENTER": 263.2017, "MEAN_ANOMALY": 96.8164, "EPHEMERIS_TYPE": 0, "CLASSIFICATION_TYPE": "U", "NORAD_CAT_ID": 66918, "ELEMENT_SET_NO": 999, "REV_AT_EPOCH": 17, "BSTAR": 7.332e-06, "MEAN_MOTION_DOT": -1.4e-06, "MEAN_MOTION_DDOT": 0}, "tle": {"line1": "1 66918U 25285D   25341.51122895 -.00000140  00000+0  73320-5 0  9995", "line2": "2 66918  50.0041 138.6166 0006366 263.2017  96.8164 14.06161971   173"}}, "geometry": {"type": "Point", "coordinates": [-11.762033222657283, -31.067176780181047]}}, {"type": "Feature", "properties": {"norad_id": 66919, "name": "HULIANWANG DIGUI 14E", "group": "last-30-days", "lat": -31.151870343576014, "lon": -11.650632695108577, "alt_km": 872.6022668840315, "timestamp": "2025-12-07T16:44:02.691703+00:00", "meta": {"OBJECT_NAME": "HULIANWANG DIGUI 14E", "OBJECT_ID": "2025-285E", "EPOCH": "2025-12-07T12:16:07.545216", "MEAN_MOTION": 14.06180376, "ECCENTRICITY": 0.0007847, "INCLINATION": 50.0066, "RA_OF_ASC_NODE": 138.6186, "ARG_OF_PERICENTER": 274.4474, "MEAN_ANOMALY": 85.5535, "EPHEMERIS_TYPE": 0, "CLASSIFICATION_TYPE": "U", "NORAD_CAT_ID": 66919, "ELEMENT_SET_NO": 999, "REV_AT_EPOCH": 17, "BSTAR": 7.1576e-06, "MEAN_MOTION_DOT": -1.4e-06, "MEAN_MOTION_DDOT": 0}, "tle": {"line1": "1 66919U 25285E   25341.51119844 -.00000140  00000+0  71576-5 0  9997", "line2": "2 66919  50.0066 138.6186 0007847 274.4474  85.5535 14.06180376   176"}}, "geometry": {"type": "Point", "coordinates": [-11.650632695108577, -31.151870343576014]}}, {"type": "Feature", "properties": {"norad_id": 66920, "name": "HULIANWANG DIGUI 14F", "group": "last-30-days", "lat": -31.556678631622585, "lon": -11.110983756847178, "alt_km": 872.9346526208255, "timestamp": "2025-12-07T16:44:02.691714+00:00", "meta": {"OBJECT_NAME": "HULIANWANG DIGUI 14F", "OBJECT_ID": "2025-285F", "EPOCH": "2025-12-07T12:15:59.264640", "MEAN_MOTION": 14.06302755, "ECCENTRICITY": 0.0005742, "INCLINATION": 50.0099, "RA_OF_ASC_NODE": 138.6205, "ARG_OF_PERICENTER": 271.5048, "MEAN_ANOMALY": 88.52, "EPHEMERIS_TYPE": 0, "CLASSIFICATION_TYPE": "U", "NORAD_CAT_ID": 66920, "ELEMENT_SET_NO": 999, "REV_AT_EPOCH": 17, "BSTAR": 0.00012849, "MEAN_MOTION_DOT": 6.1e-07, "MEAN_MOTION_DDOT": 0}, "tle": {"line1": "1 66920U 25285F   25341.51110260  .00000061  00000+0  12849-3 0  9999", "line2": "2 66920  50.0099 138.6205 0005742 271.5048  88.5200 14.06302755   172"}}, "geometry": {"type": "Point", "coordinates": [-11.110983756847178, -31.556678631622585]}}, {"type": "Feature", "properties": {"norad_id": 66921, "name": "HULIANWANG DIGUI 14G", "group": "last-30-days", "lat": -31.65557483579747, "lon": -10.977928180815612, "alt_km": 872.6944994895703, "timestamp": "2025-12-07T16:44:02.691752+00:00", "meta": {"OBJECT_NAME": "HULIANWANG DIGUI 14G", "OBJECT_ID": "2025-285G", "EPOCH": "2025-12-07T12:15:56.625984", "MEAN_MOTION": 14.06338069, "ECCENTRICITY": 0.0006931, "INCLINATION": 50.0114, "RA_OF_ASC_NODE": 138.6219, "ARG_OF_PERICENTER": 277.9969, "MEAN_ANOMALY": 82.015, "EPHEMERIS_TYPE": 0, "CLASSIFICATION_TYPE": "U", "NORAD_CAT_ID": 66921, "ELEMENT_SET_NO": 999, "REV_AT_EPOCH": 17, "BSTAR": 6.2927e-06, "MEAN_MOTION_DOT": -1.42e-06, "MEAN_MOTION_DDOT": 0}, "tle": {"line1": "1 66921U 25285G   25341.51107206 -.00000142  00000+0  62927-5 0  9991", "line2": "2 66921  50.0114 138.6219 0006931 277.9969  82.0150 14.06338069   179"}}, "geometry": {"type": "Point", "coordinates": [-10.977928180815612, -31.65557483579747]}}, {"type": "Feature", "properties": {"norad_id": 66922, "name": "HULIANWANG DIGUI 14H", "group": "last-30-days", "lat": -31.99444187002039, "lon": -10.515368612324245, "alt_km": 872.7689784533641, "timestamp": "2025-12-07T16:44:02.691763+00:00", "meta": {"OBJECT_NAME": "HULIANWANG DIGUI 14H", "OBJECT_ID": "2025-285H", "EPOCH": "2025-12-07T12:15:48.995136", "MEAN_MOTION": 14.06451234, "ECCENTRICITY": 0.0006902, "INCLINATION": 50.0078, "RA_OF_ASC_NODE": 138.619, "ARG_OF_PERICENTER": 284.3136, "MEAN_ANOMALY": 75.7003, "EPHEMERIS_TYPE": 0, "CLASSIFICATION_TYPE": "U", "NORAD_CAT_ID": 66922, "ELEMENT_SET_NO": 999, "REV_AT_EPOCH": 17, "BSTAR": 8.1671e-05, "MEAN_MOTION_DOT": -1.7e-07, "MEAN_MOTION_DDOT": 0}, "tle": {"line1": "1 66922U 25285H   25341.51098374 -.00000017  00000+0  81671-4 0  9994", "line2": "2 66922  50.0078 138.6190 0006902 284.3136  75.7003 14.06451234   179"}}, "geometry": {"type": "Point", "coordinates": [-10.515368612324245, -31.99444187002039]}}]}